ONEWEB-0578             
1 56067U 23043X   25308.43632612  .00000180  00000+0  40385-3 0  9992
2 56067  87.9171 288.8100 0001860  78.8920 281.2423 13.21824824128542
ONEWEB-0579             
1 56068U 23043Y   25308.42645097  .00000075  00000+0  14977-3 0  9994
2 56068  87.9169 288.7995 0002005  93.3062 266.8301 13.21824314128551
ONEWEB-0581             
1 56069U 23043Z   25308.42725370  .00000076  00000+0  16387-3 0  9996
2 56069  87.8995 273.5494 0001535  90.9384 269.1922 13.16595638129386
ONEWEB-0609             
1 56070U 23043AA  25308.43434328  .00000134  00000+0  32245-3 0  9995
2 56070  87.8960 304.0692 0001929  89.4883 270.6468 13.15550400126885
ONEWEB-0613             
1 56071U 23043AB  25308.42959682  .00000059  00000+0  12327-3 0  9995
2 56071  87.8957 304.0832 0002092  95.3524 264.7845 13.15546944126889
ONEWEB-0630             
1 56072U 23043AC  25308.42485272  .00000074  00000+0  16332-3 0  9992
2 56072  87.8955 304.0561 0002098  96.3302 263.8068 13.15549611126878
ONEWEB-0632             
1 56073U 23043AD  25308.42009562 -.00000023  00000+0 -96100-4 0  9995
2 56073  87.8951 304.0760 0001710  95.3753 264.7573 13.15549989126874
ONEWEB-0633             
1 56074U 23043AE  25308.48981154 -.00000024  00000+0 -97075-4 0  9991
2 56074  87.8955 304.0253 0002332  93.2895 266.8502 13.15549743126863
